ALCOMSAT 1              
1 43039U 17078A   26187.14208751 -.00000172  00000+0  00000+0 0  9993
2 43039   0.0222  87.2094 0002371  19.6191 203.6590  1.00272667 31489
SBIRS GEO-3 (USA 282)   
1 43162U 18009A   26187.18672105  .00000142  00000+0  00000+0 0  9993
2 43162   2.1971  12.9467 0002014  91.0294  88.0221  1.00272257 31033
AL YAH 3                
1 43174U 18012A   26187.14304084 -.00000142  00000+0  00000+0 0  9995
2 43174   1.5976  82.8916 0003762  20.9610 211.6630  1.00272346 31030
SES-14                  
1 43175U 18012B   26187.20885935 -.00000264  00000+0  00000+0 0  9997
2 43175   0.0124  22.4907 0001086  80.0590 209.3378  1.00271043  7210
GOES 17                 
1 43226U 18022A   26187.27191663 -.00000169  00000+0  00000+0 0  9994
2 43226   0.9826  85.4093 0000620  52.5833 154.6584  1.00272256 30615
HISPASAT 30W-6          
1 43228U 18023A   26187.16394948 -.00000202  00000+0  00000+0 0  9994
2 43228   0.0415  46.0544 0005528  39.2572 227.8720  1.00271198 30596
SUPERBIRD-B3            
1 43271U 18033A   26187.25037288 -.00000078  00000+0  00000+0 0  9995
2 43271   0.0321 276.9130 0001206 210.3859  49.0862  1.00271452 30251
HYLAS 4                 
1 43272U 18033B   26187.14035417 -.00000219  00000+0  00000+0 0  9993
2 43272   0.0171 334.9781 0001065 152.6348 173.5353  1.00271063 30252
IRNSS-1I                
1 43286U 18035A   26185.98696016  .00000082  00000+0  00000+0 0  9995
2 43286  28.7931  73.9207 0017781 182.3699  77.0399  1.00278933 30253
USA 283                 
1 43339U 18036A   26182.46854735  .00000000  00000+0  00000+0 0  9999
2 43339   0.0077  35.3198 0000064   9.2412 177.7500  1.00269042 25430
COSMOS 2526             
1 43432U 18037A   26186.03177094 -.00000331  00000+0  00000+0 0  9995
2 43432   0.0321  74.0261 0000723 193.2685 155.2272  1.00274684 30133
APSTAR-6C               
1 43450U 18041A   26186.75246481 -.00000304  00000+0  00000+0 0  9996
2 43450   0.0340 317.9342 0000438  20.2607 350.4417  1.00273505 29992
BANGABANDHUSAT-1        
1 43463U 18044A   26187.02805170 -.00000348  00000+0  00000+0 0  9998
2 43463   0.0343  93.5942 0001882  16.5675 303.0588  1.00271154 29899
SES-12                  
1 43488U 18049A   26187.09452944 -.00000255  00000+0  00000+0 0  9991
2 43488   0.0110   3.3556 0000569 256.7267 153.0355  1.00272777 29600
FENGYUN 2H              
1 43491U 18050A   26187.02016499 -.00000115  00000+0  00000+0 0  9996
2 43491   3.0768  78.8602 0001907 122.2023 169.4681  1.00268948 29629
BEIDOU-2 IGSO-7         
1 43539U 18057A   26182.89122331 -.00000033  00000+0  00000+0 0  9998
2 43539  55.1981 162.9292 0104946 237.8611 308.6338  1.00246939 29273
TELSTAR 19V             
1 43562U 18059A   26187.15778015 -.00000265  00000+0  00000+0 0  9993
2 43562   0.0397 184.4933 0002997 301.2325 152.2137  1.00270220 29338
TELKOM 4 (MERAH PUTIH)  
1 43587U 18064A   26187.23971285  .00000000  00000+0  00000+0 0  9995
2 43587   0.0186  38.3656 0001638 108.2894 331.8739  1.00268502 29071
TELSTAR 18V             
1 43611U 18069A   26187.17424100 -.00000279  00000+0  00000+0 0  9999
2 43611   0.0275 280.3330 0001926 179.6524  24.9148  1.00272386 28830
AZERSPACE 2 (IS-38)     
1 43632U 18074A   26187.22705944  .00000000  00000+0  00000+0 0  9993
2 43632   0.0186  18.0978 0001296  95.5679 297.4035  1.00269858 28635
HORIZONS-3E             
1 43633U 18074B   26186.75278985 -.00000016  00000+0  00000+0 0  9999
2 43633   0.0303 236.7690 0000600  47.0369  79.9572  1.00272989 28529
AEHF-4 (USA 288)        
1 43651U 18079A   26187.27607664 -.00000260  00000+0  00000+0 0  9993
2 43651   1.4379   5.4919 0059604 355.1095 315.3922  1.00266019 28487
BEIDOU-3 G1             
1 43683U 18085A   26187.25002622 -.00000095  00000+0  00000+0 0  9992
2 43683   2.9139  96.8716 0008546 353.6234  83.6711  1.00273747 28250
GSAT-29                 
1 43698U 18089A   26187.22922612  .00000099  00000+0  00000+0 0  9992
2 43698   0.0634 257.6609 0003354 182.7811 341.3319  1.00273329 27979
ES'HAIL 2               
1 43700U 18090A   26186.93828420  .00000158  00000+0  00000+0 0  9993
2 43700   0.0170  67.3752 0002290  77.4049 142.7409  1.00274247 27865
GEO-KOMPSAT-2A          
1 43823U 18100A   26186.95856429 -.00000329  00000+0  00000+0 0  9994
2 43823   0.0410 155.1516 0002430 302.7643 299.3798  1.00272083 27813
GSAT-11                 
1 43824U 18100B   26187.16167427 -.00000063  00000+0  00000+0 0  9997
2 43824   0.0708 264.6836 0007957 190.8248 320.8588  1.00271368 27666
GSAT-7A                 
1 43864U 18105A   26187.15942093  .00000041  00000+0  00000+0 0  9990
2 43864   0.0613  93.6280 0001908   7.1929 303.5042  1.00269458 27631
COSMOS 2533             
1 43867U 18107A   26187.08958942 -.00000025  00000+0  00000+0 0  9990
2 43867   0.0410 115.5445 0000033 127.1258 143.6692  1.00275181 27636
TJS-3                   
1 43874U 18110A   26183.77045742 -.00000207  00000+0  00000+0 0  9991
2 43874   2.5826  80.3162 0002326  74.4390 191.5459  1.00275771 27576
ZHONGXING-2D            
1 43920U 19001A   26187.31533632 -.00000323  00000+0  00000+0 0  9996
2 43920   0.0363 114.7756 0000886 235.3216 177.7216  1.00268534 54275
HELLAS-SAT 4 & SGS-1    
1 44034U 19007A   26187.22601944  .00000167  00000+0  00000+0 0  9996
2 44034   0.0664 129.4985 0005816  13.5371 261.5617  1.00269345 27558
GSAT-31                 
1 44035U 19007B   26187.15647425  .00000139  00000+0  00000+0 0  9992
2 44035   0.0399 215.2420 0000181 150.8234  22.2925  1.00274312 27155
NUSANTARA SATU          
1 44048U 19009A   26186.67687882 -.00000220  00000+0  00000+0 0  9997
2 44048   0.0337 126.8359 0004780 356.6579 189.8611  1.00272298 26956
ZHONGXING-6C            
1 44067U 19012A   26187.31542299 -.00000321  00000+0  00000+0 0  9998
2 44067   0.0701  71.5067 0014591 341.2088 115.5458  1.00269407 26931
WGS 10 (USA 291)        
1 44071U 19014A   26187.15898759  .00000061  00000+0  00000+0 0  9992
2 44071   0.0190  43.8320 0000075  81.4034 276.4482  1.00272355 26804
TIANLIAN 2-01           
1 44076U 19017A   26187.16228095 -.00000093  00000+0  00000+0 0  9997
2 44076   0.5857  83.1090 0001400  64.3620 272.1252  1.00271644 26830
ARABSAT-6A              
1 44186U 19021A   26186.93923753  .00000168  00000+0  00000+0 0  9993
2 44186   0.0484  18.6184 0000751 304.9190 329.0454  1.00279482 26343
BEIDOU-3 IGSO-1         
1 44204U 19023A   26183.86157338 -.00000197  00000+0  00000+0 0  9996
2 44204  58.7163  37.4891 0025641 224.0382  88.2901  1.00287534  7361
BEIDOU-2 G8             
1 44231U 19027A   26187.31819633 -.00000233  00000+0  00000+0 0  9998
2 44231   1.7036  74.5158 0010028 285.3018 183.5081  1.00275335 26270
YAMAL 601               
1 44307U 19031A   26187.22801279  .00000134  00000+0  00000+0 0  9993
2 44307   0.0154  67.6284 0002538  33.8771 313.7956  1.00271014 26110
AT&T T-16               
1 44333U 19034A   26186.84174903 -.00000101  00000+0  00000+0 0  9994
2 44333   0.0149  56.2676 0000694 275.5644 154.1815  1.00271742 25823
EUTELSAT 7C             
1 44334U 19034B   26187.29098339  .00000063  00000+0  00000+0 0  9999
2 44334   0.0751 180.7844 0003336 270.9360 304.3250  1.00270900  7022
BEIDOU-3 IGSO-2         
1 44337U 19035A   26187.31342965 -.00000077  00000+0  00000+0 0  9999
2 44337  55.2501 158.6948 0039670 216.4750 140.9502  1.00260728 25859
COSMOS 2539             
1 44457U 19048A   26187.29193672  .00000096  00000+0  00000+0 0  9992
2 44457   0.0337 101.6695 0000441  83.6686 216.0331  1.00275283 25419
EDRS-C                  
1 44475U 19049A   26187.24655954 -.00000248  00000+0  00000+0 0  9994
2 44475   0.0172 113.8120 0001088 356.8763  44.8173  1.00269570 25405
INTELSAT 39 (IS-39)     
1 44476U 19049B   26187.23052613  .00000000  00000+0  00000+0 0  9992
2 44476   0.0210  30.7715 0000733 293.7034 104.6789  1.00269647 25315
AMOS-17                 
1 44479U 19050A   26187.29297674  .00000123  00000+0  00000+0 0  9997
2 44479   0.0263 318.8475 0001535 145.7641 302.1192  1.00270508 25377
AEHF-5 (USA 292)        
1 44481U 19051A   26187.09426944 -.00000242  00000+0  00000+0 0  9996
2 44481   1.4376 337.5961 0065493 358.8883  74.5629  1.00267903 25455
EUTELSAT 5 WEST B       
1 44624U 19067A   26187.28855671 -.00000028  00000+0  00000+0 0  9998
2 44624   0.0663 337.8463 0003238 128.2207 277.0836  1.00271410 24622
MEV-1                   
1 44625U 19067B   26167.92963140 -.00000149  00000+0  00000+0 0  9993
2 44625   0.8740 268.9828 0002794 179.8034 307.2103  1.00269616 61744
TJS-4                   
1 44637U 19070A   26187.30606346 -.00000155  00000+0  00000+0 0  9993
2 44637   0.0609  87.2718 0003646 321.0522  69.7038  1.00271082 24738
TIBA-1                  
1 44800U 19080A   26187.22532611  .00000170  00000+0  00000+0 0  9996
2 44800   0.0509 349.5547 0002238 136.2966 274.9844  1.00274447 24246
INMARSAT GX5            
1 44801U 19080B   26187.29176339  .00000089  00000+0  00000+0 0  9994
2 44801   0.0352  14.3971 0002243  85.4406 300.4899  1.00271086  6972
JCSAT-18 (KACIFIC 1)    
1 44868U 19091A   26186.61989248 -.00000187  00000+0  00000+0 0  9995
2 44868   0.0501 225.6640 0000484 349.2254  81.8857  1.00268938 24198
ELEKTRO-L 3             
1 44903U 19095A   26187.16202095 -.00000082  00000+0  00000+0 0  9992
2 44903   0.3029  82.0276 0001608  11.4013 325.0404  1.00272218 23899
SHIJIAN-20 (SJ-20)      
1 44910U 19097A   26186.72819411  .00000147  00000+0  00000+0 0  9990
2 44910   4.9627  74.8387 0015625  57.9889  97.9211  1.00277083 23888
TJS-5                   
1 44978U 20002A   26186.81184888 -.00000328  00000+0  00000+0 0  9997
2 44978   0.0393  66.6461 0008124 348.1498 268.7799  1.00272229 23895
GSAT-30                 
1 45026U 20005A   26187.02085833 -.00000151  00000+0  00000+0 0  9993
2 45026   0.0248  93.3730 0003435 357.8177 283.3519  1.00270669 23693
EUTELSAT KONNECT        
1 45027U 20005B   26187.29098339  .00000064  00000+0  00000+0 0  9990
2 45027   0.0674  93.9063 0001967 135.9610 166.3804  1.00268947 24523
